ALOS-2                  
1 39766U 14029A   26069.86855100  .00002813  00000+0  38300-3 0  9993
2 39766  97.9186 168.4482 0001397  95.4787 264.6584 14.79510259637044
YAOGAN-29               
1 41038U 15069A   26069.87403314 -.00000047  00000+0  88326-6 0  9994
2 41038  98.0144  98.3067 0001816  34.0661 326.0668 14.82995089556050
ASTRO-H (HITOMI)        
1 41337U 16012A   26069.82394716  .00004027  00000+0  23588-3 0  9992
2 41337  31.0007 349.2282 0009805 342.4768  17.5531 15.10015481552401
HXMT (HUIYAN)           
1 42758U 17034A   26069.89661396  .00007769  00000+0  38682-3 0  9990
2 42758  43.0158   9.9631 0033059 243.3318 116.4143 15.17484695482724
SAOCOM 1A               
1 43641U 18076A   26068.96299391  .00001305  00000+0  17043-3 0  9996
2 43641  97.8895 257.1316 0001339  83.6952 276.4413 14.82173643401405
H-2A R/B                
1 43682U 18084L   26069.57677843  .00023504  00000+0  55790-3 0  9996
2 43682  98.8729 287.1541 0025388  22.2756 337.9583 15.41390798405910
SAOCOM 1B               
1 46265U 20059A   26069.80438700  .00000987  00000+0  13051-3 0  9998
2 46265  97.8894 257.0587 0001361  85.6378 274.4991 14.82149543298918
CSS (TIANHE)            
1 48274U 21035A   26069.80341873  .00031070  00000+0  36544-3 0  9998
2 48274  41.4661 201.3850 0006965 279.9751  80.0301 15.60727089277782
COSMOS 2550             
1 48865U 21056A   26069.88668778 -.00000188  00000+0  10455-6 0  9994
2 48865  67.1455  37.3105 0008424 269.5139  90.5050 15.33830688263648
CZ-2C R/B               
1 52794U 22058K   26069.86244331  .00040089  00000+0  58180-3 0  9993
2 52794  50.1895 312.2564 0042139 205.8829 154.0034 15.54329548210313
CZ-2C R/B               
1 54039U 22132E   26069.52488912  .00044069  00000+0  50113-3 0  9998
2 54039  97.2967  72.8671 0020627  88.6324 271.7296 15.61920631190505
GSLV R/B                
1 54149U 22138AN  26069.79051096  .00003930  00000+0  33937-3 0  9991
2 54149  87.3873 165.9935 0023121 142.9300 217.3534 14.96783710184090
